OBJECT_NAME,OBJECT_ID,EPOCH,MEAN_MOTION,ECCENTRICITY,INCLINATION,RA_OF_ASC_NODE,ARG_OF_PERICENTER,MEAN_ANOMALY,EPHEMERIS_TYPE,CLASSIFICATION_TYPE,NORAD_CAT_ID,ELEMENT_SET_NO,REV_AT_EPOCH,BSTAR,MEAN_MOTION_DOT,MEAN_MOTION_DDOT
M2 PATHFINDER,2020-037E,2026-07-12T12:22:48.137952,15.04786510,.00131107,97.8146,25.0339,70.7385,289.5258,0,U,45727,999,32930,.67432922E-4,.888E-5,0
NETSAT-4,2020-068U,2026-07-12T14:09:28.123776,15.44697807,.00044541,97.8604,203.8873,202.8550,157.2500,0,U,46504,999,31969,.25034941E-3,.11591E-3,0
NETSAT-3,2020-068V,2026-07-12T13:12:46.134144,15.43547770,.00035061,97.8651,202.0304,222.8875,137.2098,0,U,46505,999,31959,.26274858E-3,.11703E-3,0
NETSAT-1,2020-068W,2026-07-12T13:26:25.759968,15.35206696,.00023964,97.8750,196.0670,279.0913,81.0057,0,U,46506,999,31919,.22325675E-3,.7541E-4,0
NETSAT-2,2020-068X,2026-07-12T11:07:23.727648,15.47081469,.00017834,97.8611,203.7420,220.9475,139.1640,0,U,46507,999,31964,.30146263E-3,.15171E-3,0
GREENCUBE (IO-117),2022-080E,2026-07-12T05:48:08.210016,6.42583320,.0009038,70.1417,289.5333,284.1760,75.7895,0,U,53109,999,9367,0,-.3E-7,0
SITRO-AIS 5 (KATYS),2023-091L,2026-07-12T13:56:21.555456,15.30028033,.0010926,97.5054,257.7293,21.6054,338.5645,0,U,57176,999,16822,.26131921E-3,.753E-4,0
SITRO-AIS 6 (CHIRKIN),2023-091AC,2026-07-12T14:51:32.400000,15.26407827,.00114592,97.5061,256.7504,25.3945,334.7854,0,U,57192,999,16816,.22662534E-3,.5834E-4,0
SITRO-AIS 8 (ANOKHIN),2023-091AD,2026-07-12T14:49:43.326912,15.32812491,.0009789,97.5051,259.4611,17.4346,342.7230,0,U,57193,999,16834,.26282976E-3,.8261E-4,0
SITRO-AIS 7 (FARTUSHNIY),2023-091AE,2026-07-12T13:29:16.845792,15.26082229,.00114131,97.5057,256.5046,26.7764,333.4061,0,U,57194,999,16814,.21871195E-3,.5572E-4,0
SITRO-AIS 10 (BURDAEV),2023-091AK,2026-07-12T11:24:23.308128,15.39559788,.00050891,97.5076,264.6369,352.7880,7.3291,0,U,57199,999,16865,.34477552E-3,.13486E-3,0
SITRO-AIS 9 (SHCHUKIN),2023-091AM,2026-07-12T13:47:52.853856,15.39047910,.00053596,97.5074,264.4486,352.6622,7.4544,0,U,57201,999,16865,.32659024E-3,.12556E-3,0
SITRO-AIS 12 (SMIRENNIY),2023-091AQ,2026-07-12T11:53:48.489504,15.39341871,.00049009,97.5088,264.8507,345.9883,14.1225,0,U,57204,999,16866,.32707998E-3,.12696E-3,0
SITRO-AIS 11 (SHEFFER),2023-091AU,2026-07-12T12:02:52.282464,15.39783637,.00048057,97.5086,265.1199,345.3801,14.7304,0,U,57208,999,16868,.32272794E-3,.12709E-3,0
SITRO-AIS 25,2024-039R,2026-07-12T15:12:54.963072,14.93633186,.01425973,95.3894,252.5791,238.5752,120.1465,0,U,59066,999,12852,.13587351E-3,.1716E-4,0
SITRO-AIS 26,2024-039S,2026-07-12T15:19:56.334144,14.93425293,.0142938,95.3895,252.4749,239.1794,119.5301,0,U,59067,999,12851,.13870449E-3,.1744E-4,0
SITRO-AIS 27,2024-039T,2026-07-12T14:26:45.876768,14.93850616,.01419903,95.3899,252.7331,237.8502,120.8883,0,U,59068,999,12853,.12214417E-3,.1546E-4,0
SITRO-AIS 28,2024-039U,2026-07-12T13:53:28.173120,14.93883201,.0141906,95.3898,252.7659,237.7603,120.9804,0,U,59071,999,12853,.15045662E-3,.1914E-4,0
GRBBETA,2024-128C,2026-07-12T08:56:08.559456,15.06796996,.00373929,61.9894,127.8929,140.0298,220.3558,0,U,60237,999,11006,.14651018E-3,.2004E-4,0
OOV-CUBE (TUBSAT-30),2024-128F,2026-07-12T09:44:43.201248,15.02866804,.00414886,61.9937,137.6292,139.4098,221.0100,0,U,60240,999,10990,.95468612E-4,.1093E-4,0
ROBUSTA-3A (MEDITERRANEE),2024-128J,2026-07-12T04:51:30.786624,15.11959618,.00383455,61.9861,119.7630,133.3943,227.0356,0,U,60243,999,11020,.27268783E-3,.4555E-4,0
LASARSAT,2024-247Q,2026-07-12T05:19:43.614048,15.47906721,.0006861,44.9750,121.3703,145.2871,214.8468,0,U,62391,999,8719,.43384E-3,.22836E-3,0
CROCUBE,2024-247T,2026-07-11T23:51:35.008416,15.50022679,.00071113,44.9710,119.5598,151.4755,208.6527,0,U,62394,999,8719,.48357142E-3,.27505E-3,0
FORESAIL-1 PRIME,2025-276DS,2026-07-12T03:55:56.677152,15.18922403,.00031233,97.4195,265.9794,51.5125,308.6390,0,U,66778,999,3419,.14066162E-3,.2869E-4,0
KNACKSAT-2,1998-067XZ,2026-07-12T10:39:42.222816,15.62203060,.00081528,51.6258,167.2182,318.8485,41.1893,0,U,67683,999,2422,.37969135E-3,.33729E-3,0
